SATELIOT_2              
1 60534U 24149BU  26138.46841706  .00001003  00000+0  93935-4 0  9990
2 60534  97.6831 213.9683 0001482 115.7425 244.3949 14.96236337 95526
NIGHTJAR                
1 60535U 24149BV  26138.95314416  .00002165  00000+0  18438-3 0  9992
2 60535  97.6841 216.0674 0002085 131.7621 228.3780 14.98827114138498
LEMUR-2-MARHISYAM       
1 60536U 24149BW  26138.65745174  .00006526  00000+0  39921-3 0  9994
2 60536  97.6875 221.4184 0002058 178.8496 181.2738 15.10579029 96020
SATELIOT_4              
1 60537U 24149BX  26138.21794400  .00001704  00000+0  15483-3 0  9993
2 60537  97.6741 213.2701 0003522 119.1990 240.9584 14.96549403 95499
PICO-02A021             
1 60538U 24149BY  26138.67544307  .00003088  00000+0  23425-3 0  9995
2 60538  97.6769 217.7704 0007292 111.5960 248.6043 15.02946351 95309
ICEYE-X43               
1 60539U 24149BZ  26138.67171467  .00001919  00000+0  16004-3 0  9995
2 60539  97.6764 216.0443 0005216 178.6769 181.4469 14.99766789 95690
HAWK-10A                
1 60540U 24149CA  26138.48119084  .00001155  00000+0  10695-3 0  9995
2 60540  97.6894 214.9041 0004155 150.9614 209.1840 14.96408356 95545
UMBRA-09                
1 60541U 24149CB  26138.19757814  .00008427  00000+0  42931-3 0  9990
2 60541  97.6966 224.9146 0001230 123.3552 236.7799 15.17040965 96170
QPS-SAR-8 (AMATERU-IV)  
1 60542U 24149CC  26138.18749085  .00002610  00000+0  19441-3 0  9999
2 60542  97.6652 217.5970 0003066 188.1849 171.9327 15.03790678 95762
ARCTIC WEATHER SATELLITE
1 60543U 24149CD  26138.93709682  .00000561  00000+0  64022-4 0  9991
2 60543  97.6808 210.2370 0002143 164.2857 195.8428 14.89801789 94944
CAPELLA-15 (ACADIA-5)   
1 60544U 24149CE  26138.68818007  .00000832  00000+0  86500-4 0  9992
2 60544  97.6781 212.3250 0004653 159.6582 200.4824 14.92481624 95452
HAWK-10B                
1 60545U 24149CF  26138.48104387  .00001207  00000+0  11153-3 0  9998
2 60545  97.6815 214.2890 0005480 175.8551 184.2717 14.96409372 95541
ICEYE-X39               
1 60546U 24149CG  26138.45447142  .00001191  00000+0  10131-3 0  9992
2 60546  97.6808 215.8834 0002610 173.7592 186.3664 14.99705254 95661
UMBRA-10                
1 60547U 24149CH  26138.65883967  .00009566  00000+0  48659-3 0  9994
2 60547  97.6972 225.4084 0002120 102.6751 257.4719 15.17057072 96258
ICEYE-X33               
1 60548U 24149CJ  26138.96848721  .00003352  00000+0  26793-3 0  9990
2 60548  97.7190 218.2856 0000251 313.8701  46.2502 15.00912600 95828
ICEYE-X40               
1 60549U 24149CK  26138.64239591  .00001077  00000+0  96486-4 0  9994
2 60549  97.6822 215.6147 0005152 155.2797 204.8673 14.97844239 95651
SATELIOT_1              
1 60550U 24149CL  26138.43540853  .00001777  00000+0  15561-3 0  9990
2 60550  97.6763 214.8306 0007138 158.2199 201.9328 14.97941555 95610
BRO-14                  
1 60551U 24149CM  26138.56746121  .00000844  00000+0  80082-4 0  9996
2 60551  97.6880 214.8773 0006508 182.0875 178.0320 14.96117485 95561
SATELIOT_3              
1 60552U 24149CN  26138.47774465  .00001291  00000+0  11446-3 0  9993
2 60552  97.6817 215.6360 0005508 170.1045 190.0287 14.97915367 95639
BRO-15                  
1 60553U 24149CP  26138.14788763  .00000781  00000+0  74528-4 0  9998
2 60553  97.6804 214.0953 0008200 177.4572 182.6693 14.96070531 95513
UM5-RIBAT               
1 60554U 24149CQ  26138.47307340  .00001714  00000+0  13931-3 0  9990
2 60554  97.6658 216.6741 0003497 108.9540 251.2064 15.00889201 95738
UM5-EOSAT               
1 60555U 24149CR  26138.18124036  .00001955  00000+0  15661-3 0  9997
2 60555  97.6656 217.2912 0007227 202.9784 157.1118 15.01294447 95719
LASARSAT                
1 62391U 24247Q   26138.50005313  .00019038  00000+0  40960-3 0  9999
2 62391  44.9758  68.7838 0005414 160.1412 199.9689 15.44392444 78724
CROCUBE                 
1 62394U 24247T   26138.20848085  .00021336  00000+0  43364-3 0  9995
2 62394  44.9731  68.2037 0005074 161.9433 198.1638 15.45997443 78702
TEVEL2-4                
1 63213U 25052D   26138.95953816  .00011765  00000+0  36563-3 0  9990
2 63213  97.3934  35.3230 0002400 159.0387 201.0955 15.33496421 65637
TEVEL2-5                
1 63214U 25052E   26138.65061105  .00010892  00000+0  34047-3 0  9994
2 63214  97.3934  34.9700 0002302 158.8541 201.2797 15.33331220 65580
TEVEL2-6                
1 63215U 25052F   26138.46644105  .00010787  00000+0  33767-3 0  9992
2 63215  97.3937  34.7706 0002397 161.5493 198.5837 15.33288647 65553
TEVEL2-1                
1 63217U 25052H   26138.94253157  .00011187  00000+0  35538-3 0  9993
2 63217  97.3913  34.9044 0001936 172.8226 187.3045 15.32806742 65618
TEVEL2-3                
1 63218U 25052J   26138.15479913  .00009530  00000+0  30289-3 0  9994
2 63218  97.3915  34.1361 0001816 174.9518 185.1743 15.32837184 65490
TEVEL2-2                
1 63219U 25052K   26138.94298648  .00010992  00000+0  34919-3 0  9994
2 63219  97.3908  34.9069 0001854 174.5904 185.5359 15.32812473 65618
